PROBA-1                 
1 26958U 01049B   25068.93734917  .00003968  00000+0  27886-3 0  9997
2 26958  97.9427  57.6278 0056552 249.3844 110.1310 15.04442279273740
CUTE-1 (CO-55)          
1 27844U 03031E   25068.84052437  .00000725  00000+0  33532-3 0  9998
2 27844  98.6795  78.2903 0010883  93.8782 266.3641 14.23860824125584
CUBESAT XI-IV (CO-57)   
1 27848U 03031J   25068.53564213  .00000649  00000+0  30605-3 0  9991
2 27848  98.6825  78.0638 0010709 109.6714 250.5621 14.23214999125278
GENESIS 1               
1 29252U 06029A   25068.94282737  .00099573  00000+0  90431-3 0  9992
2 29252  64.5056 333.3134 0030888 294.2265  65.5655 15.66830951 31780
GENESIS 2               
1 31789U 07028A   25068.90928012  .00079632  00000+0  93340-3 0  9995
2 31789  64.4815  22.3278 0014829 318.8096  41.1928 15.60932123978529
APRIZESAT 4             
1 35684U 09041D   25068.75794524  .00001753  00000+0  22056-3 0  9997
2 35684  98.1974 128.6810 0044753  27.4527 332.9036 14.82722735842519
APRIZESAT 3             
1 35686U 09041F   25068.91601031  .00004982  00000+0  45596-3 0  9998
2 35686  98.1389 197.5823 0065166 157.9802 202.4239 14.93832487847009
PROBA-2                 
1 36037U 09059B   25068.46222267  .00000702  00000+0  17540-3 0  9992
2 36037  98.2359 253.5983 0012052 276.3500  83.6324 14.54451227813963
APRIZESAT 5             
1 37792U 11044E   25068.72601901  .00002645  00000+0  35207-3 0  9991
2 37792  98.2330 344.7545 0055067  58.0663 302.5886 14.79536196730078
APRIZESAT 6             
1 37793U 11044F   25068.69784424  .00001650  00000+0  24504-3 0  9993
2 37793  98.2712 324.3268 0045036 129.4421 292.4102 14.75765062728616
PROBA-V                 
1 39159U 13021A   25068.93659128  .00000190  00000+0  10150-3 0  9997
2 39159  98.3184  66.7650 0005263  61.3710 298.7999 14.23445552615062
APRIZESAT 7             
1 39416U 13066A   25068.91715559  .00003161  00000+0  33300-3 0  9994
2 39416  97.7094  26.2958 0035920 311.7602  48.0547 14.89595298612065
APRIZESAT 8             
1 39425U 13066K   25068.80921265  .00003392  00000+0  38637-3 0  9999
2 39425  97.7655  19.9927 0047935  15.4641 344.8026 14.86005927610668
BUGSAT-1 (TITA)         
1 40014U 14033E   25068.84680090  .00009850  00000+0  61392-3 0  9991
2 40014  98.0865 130.4240 0031028 320.7786  39.1193 15.09375489585643
SAUDISAT 4              
1 40016U 14033G   25068.88781927  .00002003  00000+0  27670-3 0  9992
2 40016  97.6934 228.2532 0046582 143.3579 217.0833 14.78439218577440
APRIZESAT 9             
1 40018U 14033J   25068.87424820  .00001704  00000+0  26325-3 0  9992
2 40018  97.8372 210.6081 0066251 252.8875 106.5070 14.73154119575176
APRIZESAT 10            
1 40019U 14033K   25068.91646471  .00001199  00000+0  19917-3 0  9993
2 40019  97.9005 203.2448 0079163 317.1541  42.3514 14.69953527574025
TECHDEMOSAT-1 (TDS-1)   
1 40076U 14037H   25068.81856639  .00016235  00000+0  12055-2 0  9990
2 40076  98.3337  15.1946 0009531  39.7147 320.4772 15.03093704578228
TECHNOSAT               
1 42829U 17042E   25068.93287947  .00007044  00000+0  56046-3 0  9997
2 42829  97.3897 242.0533 0012170 231.3302 128.6835 15.00640835416976
FLYING LAPTOP           
1 42831U 17042G   25068.90088849  .00005300  00000+0  45281-3 0  9999
2 42831  97.3982 241.1603 0010354 259.7851 100.2204 14.98014832416870
HAWK-A                  
1 43765U 18099H   25068.69269587  .00009622  00000+0  61154-3 0  9993
2 43765  97.4593 123.9748 0012578  92.7311 267.5358 15.08972447342590
HAWK-B                  
1 43794U 18099AN  25068.70074350  .00009647  00000+0  62047-3 0  9998
2 43794  97.4586 123.9633 0012238  94.0012 266.2615 15.08536129342587
HAWK-C                  
1 43799U 18099AT  25068.69430730  .00010146  00000+0  64688-3 0  9998
2 43799  97.4596 123.8696 0012429  92.3791 267.8861 15.08842614343331
SALSAT                  
1 46495U 20068K   25068.89250971  .00013493  00000+0  61866-3 0  9995
2 46495  97.8519  42.8655 0014133 115.2772 244.9928 15.20496540244583
HAWK-2C                 
1 47502U 21006CT  25068.64559677  .00012142  00000+0  46370-3 0  9999
2 47502  97.2940 117.8885 0009413  67.1981 293.0251 15.26738200228433
HAWK-2A                 
1 47505U 21006CW  25068.71140409  .00011236  00000+0  42977-3 0  9991
2 47505  97.2985 118.3599 0008997  68.7236 291.4962 15.26707834228440
HAWK-2B                 
1 47508U 21006CZ  25068.71150632  .00012779  00000+0  48762-3 0  9994
2 47508  97.2855 117.4809 0009720  68.6079 291.6196 15.26750041228441
HAWK-3B                 
1 48931U 21059BE  25068.92690010  .00027154  00000+0  65938-3 0  9992
2 48931  97.6541 228.6351 0009254 215.9967 144.0656 15.40949300205788
HAWK-3C                 
1 48948U 21059BX  25068.92668888  .00028450  00000+0  69062-3 0  9990
2 48948  97.6790 233.1215 0009856 219.7470 140.3054 15.40943852205788
HAWK-3A                 
1 48957U 21059CG  25068.92651747  .00028183  00000+0  68410-3 0  9995
2 48957  97.6669 230.8897 0009928 213.2755 146.7868 15.40946147205781
HAWK-4B                 
1 52165U 22033J   25068.79217761  .00078851  00000+0  86316-3 0  9995
2 52165  97.2982 161.2232 0003544  59.0938 301.0669 15.63028548164430
HAWK-4A                 
1 52167U 22033L   25068.79172581  .00081104  00000+0  88705-3 0  9996
2 52167  97.2918 160.4933 0003166  63.1271 297.0311 15.63044337164438
HAWK-4C                 
1 52170U 22033P   25068.79166976  .00081117  00000+0  88737-3 0  9990
2 52170  97.2979 161.1905 0004141  44.3933 315.7657 15.63035403164431
HAWK-5C                 
1 52754U 22057Y   25068.89354033  .00020432  00000+0  63166-3 0  9990
2 52754  97.6010 202.1535 0005923 296.5177  63.5457 15.33528694154794
HAWK-5B                 
1 52756U 22057AA  25068.89339166  .00020686  00000+0  63930-3 0  9992
2 52756  97.5996 200.5735 0006464 290.8430  69.2119 15.33532600154792
HAWK-5A                 
1 52757U 22057AB  25068.89316930  .00020614  00000+0  63711-3 0  9995
2 52757  97.6002 201.3595 0006792 293.2669  66.7857 15.33529511154798
HAWK-6B                 
1 55324U 23011A   25068.65391032  .00009384  00000+0  47863-3 0  9990
2 55324  40.5146 168.7467 0000360 250.7912 109.2856 15.16668754117149
HAWK-6C                 
1 55326U 23011C   25068.65337258  .00009491  00000+0  48384-3 0  9990
2 55326  40.4831 166.6029 0001371 233.5881 126.4799 15.16672886117158
HAWK-6A                 
1 55327U 23011D   25068.65337231  .00009516  00000+0  48521-3 0  9993
2 55327  40.4993 167.7085 0001311 198.8488 161.2271 15.16667008117154
HAWK-7A                 
1 56191U 23054P   25068.74610520  .00013205  00000+0  52321-3 0  9998
2 56191  97.3406 320.5918 0005505 292.7002  67.3654 15.25518650106116
HAWK-7B                 
1 56193U 23054R   25068.74604270  .00013017  00000+0  51557-3 0  9996
2 56193  97.3305 318.9709 0006623 305.3718  54.6901 15.25526670106117
HAWK-7C                 
1 56200U 23054Y   25068.74590617  .00013031  00000+0  51636-3 0  9998
2 56200  97.3312 319.7780 0005693 306.0689  54.0022 15.25518081106118
